YAOGAN-43 01G           
1 60464U 24148G   26068.44348481  .00010133  00000+0  35873-3 0  9993
2 60464  35.0006  62.0013 0007382 306.3543  53.6492 15.28332833 87004
STARLINK-32926          
1 63025U 25032W   26068.82148411  .00039474  00000+0  14344-2 0  9993
2 63025  43.0004 335.0020 0001834 348.5664  11.5146 15.27624607 60648
